{
  "norad_id": 50002,
  "name": "EXPRESS AMU-3",
  "history": [
    {
      "epoch": "2026-03-28T04:45:26.034336Z",
      "apogee_km": 35787.25767112306,
      "perigee_km": 35785.60482004783,
      "latitude_deg": 0.015598856201299863,
      "longitude_deg": 103.01941866983621,
      "height_km": 35785.79961386281,
      "semi_major_axis_km": 42164.56824558545,
      "eccentricity": 1.96e-05,
      "inclination_deg": 0.0171,
      "raan_deg": 229.8195,
      "arg_perigee_deg": 48.5209,
      "mean_anomaly_deg": 81.634,
      "mean_motion_rev_day": 1.00272369
    },
    {
      "epoch": "2026-03-30T04:37:33.430656Z",
      "apogee_km": 35788.12056238951,
      "perigee_km": 35785.00880740516,
      "latitude_deg": 0.022655555953165613,
      "longitude_deg": 103.02274073729069,
      "height_km": 35785.56639865124,
      "semi_major_axis_km": 42164.701684897336,
      "eccentricity": 3.69e-05,
      "inclination_deg": 0.0216,
      "raan_deg": 239.4476,
      "arg_perigee_deg": 48.7035,
      "mean_anomaly_deg": 71.823,
      "mean_motion_rev_day": 1.00271893
    },
    {
      "epoch": "2026-03-30T04:37:33.440160Z",
      "apogee_km": 35788.04693803413,
      "perigee_km": 35785.06505094555,
      "latitude_deg": 0.02248595683915186,
      "longitude_deg": 103.02278267635535,
      "height_km": 35785.63798754886,
      "semi_major_axis_km": 42164.692994489844,
      "eccentricity": 3.536e-05,
      "inclination_deg": 0.0214,
      "raan_deg": 238.9851,
      "arg_perigee_deg": 46.7687,
      "mean_anomaly_deg": 74.2205,
      "mean_motion_rev_day": 1.00271924
    }
  ]
}